{
  "type": "FeatureCollection",
  "features": [
    {
      "type": "Feature",
      "properties": {
        "corridorId": "ncr-airshed",
        "name": "Delhi-NCR Airshed",
        "states": ["DL", "HR", "UP", "RJ"],
        "note": "Bounding-box approximation of the NCR planning region. Replace with the NCRPB boundary polygon when available; every consumer reads this file, so the swap is one edit."
      },
      "geometry": {
        "type": "Polygon",
        "coordinates": [[[76.25, 27.8], [77.95, 27.8], [77.95, 29.25], [76.25, 29.25], [76.25, 27.8]]]
      }
    }
  ]
}
